1998-067TE              
1 51442U 98067TE  22043.91242577  .00031754  00000+0  53627-3 0  9999
2 51442  51.6399 231.8920 0008187 145.9678 214.1838 15.51300111  2748
DAILI                   
1 51443U 98067TF  22043.52017429  .00079526  00000+0  12751-2 0  9994
2 51443  51.6400 233.7740 0008847 129.2811 230.8965 15.52332341  2646
CSG-2                   
1 51444U 22008A   22043.77629762  .00052676  00000+0  64410-2 0  9999
2 51444  97.8843 229.2638 0001621  78.0097  43.4463 14.82998654  1744
STARLINK-3167           
1 51460U 22010E   22043.91667824 -.00965149  28212-3 -30804-2 0  9996
2 51460  53.2173 127.3907 0014274 222.0314  45.4800 15.90218630  2693
STARLINK-3181           
1 51461U 22010F   22043.91667824 -.00954924  27288-3 -32948-2 0  9999
2 51461  53.2173 127.4633 0011931 230.9730 356.6081 15.88732630  2751
STARLINK-3166           
1 51462U 22010G   22043.91667824 -.00955178  27300-3 -32972-2 0  9994
2 51462  53.2173 127.4613 0011779 231.8631 356.5301 15.88726643  2728
STARLINK-3419           
1 51463U 22010H   22043.91667824 -.00966593  28282-3 -30902-2 0  9999
2 51463  53.2173 127.3849 0013910 222.5241  47.6593 15.90195209  2690
STARLINK-3189           
1 51464U 22010J   22043.91667824 -.00955295  27310-3 -32943-2 0  9995
2 51464  53.2173 127.4596 0011906 231.0316 358.1099 15.88743985  2702
STARLINK-3401           
1 51465U 22010K   22043.91667824 -.00955212  27305-3 -32935-2 0  9990
2 51465  53.2173 127.4579 0012276 228.9903   0.9220 15.88739180  2757
STARLINK-3178           
1 51467U 22010M   22043.91667824 -.00966887  28297-3 -30953-2 0  9991
2 51467  53.2173 127.3834 0012927 226.9747  43.9287 15.90192601  2753
STARLINK-3174           
1 51468U 22010N   22043.91667824 -.00965888  28250-3 -30866-2 0  9994
2 51468  53.2173 127.3888 0013488 224.4758  43.8275 15.90213986  2757
STARLINK-3182           
1 51469U 22010P   22043.91667824 -.00955144  27300-3 -32949-2 0  9998
2 51469  53.2173 127.4605 0011907 231.0689 357.6433 15.88737146  2755
STARLINK Q              
1 51470U 22010Q   22043.65749367  .08378202  12224-4  26598-3 0  9998
2 51470  53.2035 127.3150 0014994 203.4139 311.6420 16.43396970  2237
STARLINK-3165           
1 51471U 22010R   22043.91667824 -.00859626  25014-3 -17168-2 0  9995
2 51471  53.2176 126.9677 0010419 241.3183 222.0828 15.99002421  2750
STARLINK-3415           
1 51472U 22010S   22043.91667824 -.00966193  28265-3 -30875-2 0  9995
2 51472  53.2173 127.3870 0013748 223.2426  45.8846 15.90208149  2752
FALCON 9 DEB            
1 51473U 22010T   22043.49763549  .01913697  11734-4  75289-3 0  9993
2 51473  53.2068 128.7964 0044925 196.3897 163.5694 16.20283232  2207
FALCON 9 DEB            
1 51474U 22010U   22043.68802073  .01904177  11701-4  76429-3 0  9995
2 51474  53.2027 127.8481 0051184 191.2903 168.6993 16.19282346  2238
FALCON 9 DEB            
1 51475U 22010V   22043.67391314  .02661756  11837-4  76915-3 0  9990
2 51475  53.2062 127.7572 0036216 191.2868 168.7366 16.24709060  2235
FALCON 9 DEB            
1 51476U 22010W   22043.67778127  .02119642  11777-4  71651-3 0  9999
2 51476  53.2072 127.7838 0043605 192.2518 167.7466 16.22158496  2234
LIGHT-1                 
1 51509U 98067TG  22043.79032789  .00026350  00000+0  45347-3 0  9997
2 51509  51.6420 232.5690 0009754 130.9766 229.2084 15.50857738  1506
GT-1                    
1 51510U 98067TH  22043.78952771  .00056812  00000+0  95133-3 0  9994
2 51510  51.6435 232.5690 0008332 127.2223 232.9553 15.51269687  1527
COSMOS 2553             
1 51511U 22011A   22043.68142641 -.00000118  00000+0 -22625-2 0  9992
2 51511  67.0889 217.7058 0003964 267.0041  93.0448 11.32883778   843
